{
  "type": "FeatureCollection",
  "features": [
    {
      "type": "Feature",
      "properties": {
        "norad_id": 66639,
        "name": "STARLINK-35908",
        "group": "last-30-days",
        "lat": -34.68805924837787,
        "lon": -27.103421039794902,
        "alt_km": 451.7694508216755,
        "timestamp": "2025-12-26T12:57:37.974395+00:00",
        "meta_object_name": "STARLINK-35908",
        "meta_object_id": "2025-271Y",
        "meta_epoch": "2025-12-25T17:17:28.282272",
        "meta_mean_motion": 15.396157,
        "meta_eccentricity": 0.00011134,
        "meta_inclination": 53.1597,
        "meta_ra_of_asc_node": 125.5009,
        "meta_arg_of_pericenter": 80.8294,
        "meta_mean_anomaly": 279.2837,
        "meta_ephemeris_type": 0,
        "meta_classification_type": "U",
        "meta_norad_cat_id": 66639,
        "meta_element_set_no": 999,
        "meta_rev_at_epoch": 621,
        "meta_bstar": 0.00096710482,
        "meta_mean_motion_dot": 0.00038474,
        "meta_mean_motion_ddot": 0,
        "tle_line1": "1 66639U 25271Y   25359.72046623  .00038474  00000+0  96710-3 0  9992",
        "tle_line2": "2 66639  53.1597 125.5009 0001113  80.8294 279.2837 15.39615700  6215"
      },
      "geometry": {
        "type": "Point",
        "coordinates": [
          -27.103421039794902,
          -34.68805924837787
        ]
      }
    },
    {
      "type": "Feature",
      "properties": {
        "norad_id": 66640,
        "name": "STARLINK-35921",
        "group": "last-30-days",
        "lat": 4.868278488315003,
        "lon": -61.920211351380566,
        "alt_km": 447.21412889593375,
        "timestamp": "2025-12-26T12:57:37.974406+00:00",
        "meta_object_name": "STARLINK-35921",
        "meta_object_id": "2025-271Z",
        "meta_epoch": "2025-12-25T17:30:50.449248",
        "meta_mean_motion": 15.39636254,
        "meta_eccentricity": 1.212e-05,
        "meta_inclination": 53.1611,
        "meta_ra_of_asc_node": 125.56,
        "meta_arg_of_pericenter": 242.9433,
        "meta_mean_anomaly": 117.156,
        "meta_ephemeris_type": 0,
        "meta_classification_type": "U",
        "meta_norad_cat_id": 66640,
        "meta_element_set_no": 999,
        "meta_rev_at_epoch": 621,
        "meta_bstar": 0.00098063977,
        "meta_mean_motion_dot": 0.00039047,
        "meta_mean_motion_ddot": 0,
        "tle_line1": "1 66640U 25271Z   25359.72975057  .00039047  00000+0  98064-3 0  9997",
        "tle_line2": "2 66640  53.1611 125.5600 0000121 242.9433 117.1560 15.39636254  6215"
      },
      "geometry": {
        "type": "Point",
        "coordinates": [
          -61.920211351380566,
          4.868278488315003
        ]
      }
    },
    {
      "type": "Feature",
      "properties": {
        "norad_id": 66641,
        "name": "STARLINK-35923",
        "group": "last-30-days",
        "lat": -6.425308968402092,
        "lon": 116.54187418779556,
        "alt_km": 448.75299300741244,
        "timestamp": "2025-12-26T12:57:37.974417+00:00",
        "meta_object_name": "STARLINK-35923",
        "meta_object_id": "2025-271AA",
        "meta_epoch": "2025-12-26T06:00:02.999808",
        "meta_mean_motion": 15.39576548,
        "meta_eccentricity": 0.00010109,
        "meta_inclination": 53.1607,
        "meta_ra_of_asc_node": 122.7517,
        "meta_arg_of_pericenter": 65.4675,
        "meta_mean_anomaly": 118.4245,
        "meta_ephemeris_type": 0,
        "meta_classification_type": "U",
        "meta_norad_cat_id": 66641,
        "meta_element_set_no": 999,
        "meta_rev_at_epoch": 603,
        "meta_bstar": 0.0017594264,
        "meta_mean_motion_dot": 0.00070528,
        "meta_mean_motion_ddot": 0,
        "tle_line1": "1 66641U 25271AA  25360.25003472  .00070528  00000+0  17594-2 0  9998",
        "tle_line2": "2 66641  53.1607 122.7517 0001010  65.4675 118.4245 15.39576548  6034"
      },
      "geometry": {
        "type": "Point",
        "coordinates": [
          116.54187418779556,
          -6.425308968402092
        ]
      }
    },
    {
      "type": "Feature",
      "properties": {
        "norad_id": 66642,
        "name": "STARLINK-35926",
        "group": "last-30-days",
        "lat": -25.024365753929104,
        "lon": 100.94722584745581,
        "alt_km": 450.7625412208745,
        "timestamp": "2025-12-26T12:57:37.974427+00:00",
        "meta_object_name": "STARLINK-35926",
        "meta_object_id": "2025-271AB",
        "meta_epoch": "2025-12-26T06:00:02.999808",
        "meta_mean_motion": 15.39591598,
        "meta_eccentricity": 0.00011122,
        "meta_inclination": 53.1604,
        "meta_ra_of_asc_node": 122.8002,
        "meta_arg_of_pericenter": 66.3496,
        "meta_mean_anomaly": 93.6328,
        "meta_ephemeris_type": 0,
        "meta_classification_type": "U",
        "meta_norad_cat_id": 66642,
        "meta_element_set_no": 999,
        "meta_rev_at_epoch": 609,
        "meta_bstar": 0.0023813646,
        "meta_mean_motion_dot": 0.0009597,
        "meta_mean_motion_ddot": 0,
        "tle_line1": "1 66642U 25271AB  25360.25003472  .00095970  00000+0  23814-2 0  9999",
        "tle_line2": "2 66642  53.1604 122.8002 0001112  66.3496  93.6328 15.39591598  6090"
      },
      "geometry": {
        "type": "Point",
        "coordinates": [
          100.94722584745581,
          -25.024365753929104
        ]
      }
    },
    {
      "type": "Feature",
      "properties": {
        "norad_id": 66643,
        "name": "STARLINK-35918",
        "group": "last-30-days",
        "lat": -49.24113771032354,
        "lon": 2.0125540902948953,
        "alt_km": 452.5168901505476,
        "timestamp": "2025-12-26T12:57:37.974437+00:00",
        "meta_object_name": "STARLINK-35918",
        "meta_object_id": "2025-271AC",
        "meta_epoch": "2025-12-25T15:37:18.413184",
        "meta_mean_motion": 15.39654781,
        "meta_eccentricity": 0.0001349,
        "meta_inclination": 53.1627,
        "meta_ra_of_asc_node": 125.776,
        "meta_arg_of_pericenter": 83.2816,
        "meta_mean_anomaly": 276.8342,
        "meta_ephemeris_type": 0,
        "meta_classification_type": "U",
        "meta_norad_cat_id": 66643,
        "meta_element_set_no": 999,
        "meta_rev_at_epoch": 620,
        "meta_bstar": 0.0010433,
        "meta_mean_motion_dot": 0.00041607,
        "meta_mean_motion_ddot": 0,
        "tle_line1": "1 66643U 25271AC  25359.65090756  .00041607  00000+0  10433-2 0  9994",
        "tle_line2": "2 66643  53.1627 125.7760 0001349  83.2816 276.8342 15.39654781  6203"
      },
      "geometry": {
        "type": "Point",
        "coordinates": [
          2.0125540902948953,
          -49.24113771032354
        ]
      }
    },
    {
      "type": "Feature",
      "properties": {
        "norad_id": 66644,
        "name": "STARLINK-35938",
        "group": "last-30-days",
        "lat": -26.427835878204338,
        "lon": 99.56099856478502,
        "alt_km": 451.2142902056994,
        "timestamp": "2025-12-26T12:57:37.974450+00:00",
        "meta_object_name": "STARLINK-35938",
        "meta_object_id": "2025-271AD",
        "meta_epoch": "2025-12-26T06:00:02.999808",
        "meta_mean_motion": 15.39579462,
        "meta_eccentricity": 0.00010304,
        "meta_inclination": 53.1605,
        "meta_ra_of_asc_node": 122.8044,
        "meta_arg_of_pericenter": 90.0587,
        "meta_mean_anomaly": 68.0561,
        "meta_ephemeris_type": 0,
        "meta_classification_type": "U",
        "meta_norad_cat_id": 66644,
        "meta_element_set_no": 999,
        "meta_rev_at_epoch": 576,
        "meta_bstar": 0.0019345101,
        "meta_mean_motion_dot": 0.00077667,
        "meta_mean_motion_ddot": 0,
        "tle_line1": "1 66644U 25271AD  25360.25003472  .00077667  00000+0  19345-2 0  9998",
        "tle_line2": "2 66644  53.1605 122.8044 0001030  90.0587  68.0561 15.39579462  5767"
      },
      "geometry": {
        "type": "Point",
        "coordinates": [
          99.56099856478502,
          -26.427835878204338
        ]
      }
    },
    {
      "type": "Feature",
      "properties": {
        "norad_id": 66645,
        "name": "SHENZHOU-22",
        "group": "last-30-days",
        "lat": -26.544674129001667,
        "lon": -101.55911831170734,
        "alt_km": 396.3400974674605,
        "timestamp": "2025-12-26T12:57:37.974461+00:00",
        "meta_object_name": "SHENZHOU-22",
        "meta_object_id": "2025-272A",
        "meta_epoch": "2025-12-26T05:27:30.670848",
        "meta_mean_motion": 15.59708409,
        "meta_eccentricity": 0.00085179,
        "meta_inclination": 41.468,
        "meta_ra_of_asc_node": 294.7909,
        "meta_arg_of_pericenter": 149.5046,
        "meta_mean_anomaly": 210.6289,
        "meta_ephemeris_type": 0,
        "meta_classification_type": "U",
        "meta_norad_cat_id": 66645,
        "meta_element_set_no": 999,
        "meta_rev_at_epoch": 26598,
        "meta_bstar": 0.00023601706,
        "meta_mean_motion_dot": 0.00019151,
        "meta_mean_motion_ddot": 0,
        "tle_line1": "1 66645U 25272A   25360.22743832  .00019151  00000+0  23602-3 0  9994",
        "tle_line2": "2 66645  41.4680 294.7909 0008517 149.5046 210.6289 15.59708409265988"
      },
      "geometry": {
        "type": "Point",
        "coordinates": [
          -101.55911831170734,
          -26.544674129001667
        ]
      }
    }
  ]
}